[{"OBJECT_NAME":"STARLINK-11523 [DTC]","OBJECT_ID":"2025-006M","EPOCH":"2026-02-15T23:15:17.457120","MEAN_MOTION":15.70861421,"ECCENTRICITY":0.0001957,"INCLINATION":42.9998,"RA_OF_ASC_NODE":271.0533,"ARG_OF_PERICENTER":280.4506,"MEAN_ANOMALY":79.6141,"EPHEMERIS_TYPE":0,"CLASSIFICATION_TYPE":"U","NORAD_CAT_ID":62565,"ELEMENT_SET_NO":999,"REV_AT_EPOCH":6318,"BSTAR":0.0015442,"MEAN_MOTION_DOT":0.00202781,"MEAN_MOTION_DDOT":0},{"OBJECT_NAME":"STARLINK-11525 [DTC]","OBJECT_ID":"2025-006N","EPOCH":"2026-02-16T14:53:51.549792","MEAN_MOTION":15.70793077,"ECCENTRICITY":0.000238,"INCLINATION":42.9981,"RA_OF_ASC_NODE":267.3507,"ARG_OF_PERICENTER":282.3993,"MEAN_ANOMALY":77.6608,"EPHEMERIS_TYPE":0,"CLASSIFICATION_TYPE":"U","NORAD_CAT_ID":62566,"ELEMENT_SET_NO":999,"REV_AT_EPOCH":6328,"BSTAR":-0.00012961,"MEAN_MOTION_DOT":-0.00017015,"MEAN_MOTION_DDOT":0},{"OBJECT_NAME":"STARLINK-32752","OBJECT_ID":"2025-006P","EPOCH":"2026-02-16T09:16:46.788096","MEAN_MOTION":15.27577904,"ECCENTRICITY":0.00014674,"INCLINATION":43.0039,"RA_OF_ASC_NODE":52.972,"ARG_OF_PERICENTER":279.882,"MEAN_ANOMALY":80.1866,"EPHEMERIS_TYPE":0,"CLASSIFICATION_TYPE":"U","NORAD_CAT_ID":62567,"ELEMENT_SET_NO":999,"REV_AT_EPOCH":6160,"BSTAR":0.0010865553,"MEAN_MOTION_DOT":0.00029756,"MEAN_MOTION_DDOT":0},{"OBJECT_NAME":"STARLINK-32760","OBJECT_ID":"2025-006Q","EPOCH":"2026-02-16T10:58:19.865568","MEAN_MOTION":15.27612208,"ECCENTRICITY":0.00013847,"INCLINATION":43.0039,"RA_OF_ASC_NODE":52.6263,"ARG_OF_PERICENTER":270.9056,"MEAN_ANOMALY":89.1637,"EPHEMERIS_TYPE":0,"CLASSIFICATION_TYPE":"U","NORAD_CAT_ID":62568,"ELEMENT_SET_NO":999,"REV_AT_EPOCH":6161,"BSTAR":0.00086540263,"MEAN_MOTION_DOT":0.00023652,"MEAN_MOTION_DDOT":0},{"OBJECT_NAME":"STARLINK-32715","OBJECT_ID":"2025-006R","EPOCH":"2026-02-16T09:37:08.396832","MEAN_MOTION":15.27584516,"ECCENTRICITY":0.00032146,"INCLINATION":43.0079,"RA_OF_ASC_NODE":53.0829,"ARG_OF_PERICENTER":294.3723,"MEAN_ANOMALY":65.6793,"EPHEMERIS_TYPE":0,"CLASSIFICATION_TYPE":"U","NORAD_CAT_ID":62569,"ELEMENT_SET_NO":999,"REV_AT_EPOCH":6160,"BSTAR":0.00083882692,"MEAN_MOTION_DOT":0.00022897,"MEAN_MOTION_DDOT":0},{"OBJECT_NAME":"STARLINK-32764","OBJECT_ID":"2025-006S","EPOCH":"2026-02-16T09:48:14.015520","MEAN_MOTION":15.27599175,"ECCENTRICITY":0.00012137,"INCLINATION":43.0011,"RA_OF_ASC_NODE":53.13,"ARG_OF_PERICENTER":240.9771,"MEAN_ANOMALY":119.0959,"EPHEMERIS_TYPE":0,"CLASSIFICATION_TYPE":"U","NORAD_CAT_ID":62570,"ELEMENT_SET_NO":999,"REV_AT_EPOCH":6160,"BSTAR":0.00086438395,"MEAN_MOTION_DOT":0.00023614,"MEAN_MOTION_DDOT":0},{"OBJECT_NAME":"STARLINK-32773","OBJECT_ID":"2025-006T","EPOCH":"2026-02-16T10:25:02.663904","MEAN_MOTION":15.27577832,"ECCENTRICITY":0.00029523,"INCLINATION":43.0044,"RA_OF_ASC_NODE":52.4656,"ARG_OF_PERICENTER":268.0155,"MEAN_ANOMALY":92.0359,"EPHEMERIS_TYPE":0,"CLASSIFICATION_TYPE":"U","NORAD_CAT_ID":62571,"ELEMENT_SET_NO":999,"REV_AT_EPOCH":6161,"BSTAR":0.00074422989,"MEAN_MOTION_DOT":0.00020274,"MEAN_MOTION_DDOT":0},{"OBJECT_NAME":"STARLINK-32750","OBJECT_ID":"2025-006U","EPOCH":"2026-02-16T00:34:11.347680","MEAN_MOTION":15.27614814,"ECCENTRICITY":0.00010485,"INCLINATION":42.9996,"RA_OF_ASC_NODE":54.5332,"ARG_OF_PERICENTER":229.7418,"MEAN_ANOMALY":130.3342,"EPHEMERIS_TYPE":0,"CLASSIFICATION_TYPE":"U","NORAD_CAT_ID":62572,"ELEMENT_SET_NO":999,"REV_AT_EPOCH":6155,"BSTAR":0.0010862491,"MEAN_MOTION_DOT":0.00029782,"MEAN_MOTION_DDOT":0},{"OBJECT_NAME":"STARLINK-32771","OBJECT_ID":"2025-006V","EPOCH":"2026-02-16T08:39:46.734912","MEAN_MOTION":15.27578357,"ECCENTRICITY":0.00013465,"INCLINATION":42.9987,"RA_OF_ASC_NODE":52.7698,"ARG_OF_PERICENTER":278.7444,"MEAN_ANOMALY":81.3255,"EPHEMERIS_TYPE":0,"CLASSIFICATION_TYPE":"U","NORAD_CAT_ID":62573,"ELEMENT_SET_NO":999,"REV_AT_EPOCH":6160,"BSTAR":0.0010209431,"MEAN_MOTION_DOT":0.00027937,"MEAN_MOTION_DDOT":0},{"OBJECT_NAME":"STARLINK-32766","OBJECT_ID":"2025-006W","EPOCH":"2026-02-16T09:05:41.009568","MEAN_MOTION":15.27587194,"ECCENTRICITY":0.0001585,"INCLINATION":43.0012,"RA_OF_ASC_NODE":52.9056,"ARG_OF_PERICENTER":285.2848,"MEAN_ANOMALY":74.7828,"EPHEMERIS_TYPE":0,"CLASSIFICATION_TYPE":"U","NORAD_CAT_ID":62574,"ELEMENT_SET_NO":999,"REV_AT_EPOCH":6160,"BSTAR":0.0011456237,"MEAN_MOTION_DOT":0.00031404,"MEAN_MOTION_DDOT":0},{"OBJECT_NAME":"STARLINK-11547 [DTC]","OBJECT_ID":"2025-008A","EPOCH":"2026-02-16T17:14:24.086976","MEAN_MOTION":15.71441935,"ECCENTRICITY":0.0004043,"INCLINATION":42.9982,"RA_OF_ASC_NODE":252.7846,"ARG_OF_PERICENTER":251.2529,"MEAN_ANOMALY":108.79,"EPHEMERIS_TYPE":0,"CLASSIFICATION_TYPE":"U","NORAD_CAT_ID":62587,"ELEMENT_SET_NO":999,"REV_AT_EPOCH":6281,"BSTAR":0.0028238,"MEAN_MOTION_DOT":0.00389132,"MEAN_MOTION_DDOT":0},{"OBJECT_NAME":"STARLINK-11185 [DTC]","OBJECT_ID":"2025-008B","EPOCH":"2026-02-15T23:41:21.356736","MEAN_MOTION":15.70940778,"ECCENTRICITY":0.00027659,"INCLINATION":42.9994,"RA_OF_ASC_NODE":256.744,"ARG_OF_PERICENTER":296.6617,"MEAN_ANOMALY":63.3967,"EPHEMERIS_TYPE":0,"CLASSIFICATION_TYPE":"U","NORAD_CAT_ID":62588,"ELEMENT_SET_NO":999,"REV_AT_EPOCH":6270,"BSTAR":0.0023338245,"MEAN_MOTION_DOT":0.0031185,"MEAN_MOTION_DDOT":0},{"OBJECT_NAME":"STARLINK-11513 [DTC]","OBJECT_ID":"2025-008C","EPOCH":"2026-02-16T20:02:13.678656","MEAN_MOTION":15.70885793,"ECCENTRICITY":0.0001755,"INCLINATION":43.0031,"RA_OF_ASC_NODE":251.9398,"ARG_OF_PERICENTER":276.8372,"MEAN_ANOMALY":83.2296,"EPHEMERIS_TYPE":0,"CLASSIFICATION_TYPE":"U","NORAD_CAT_ID":62589,"ELEMENT_SET_NO":999,"REV_AT_EPOCH":6283,"BSTAR":0.00091008,"MEAN_MOTION_DOT":0.0011823,"MEAN_MOTION_DDOT":0},{"OBJECT_NAME":"STARLINK-11397 [DTC]","OBJECT_ID":"2025-008D","EPOCH":"2026-02-16T14:34:01.805376","MEAN_MOTION":15.71000915,"ECCENTRICITY":0.0002429,"INCLINATION":42.9996,"RA_OF_ASC_NODE":252.7824,"ARG_OF_PERICENTER":269.6327,"MEAN_ANOMALY":90.4263,"EPHEMERIS_TYPE":0,"CLASSIFICATION_TYPE":"U","NORAD_CAT_ID":62590,"ELEMENT_SET_NO":999,"REV_AT_EPOCH":6391,"BSTAR":0.0031159,"MEAN_MOTION_DOT":0.00423258,"MEAN_MOTION_DDOT":0},{"OBJECT_NAME":"STARLINK-11420 [DTC]","OBJECT_ID":"2025-008E","EPOCH":"2026-02-15T22:48:01.495584","MEAN_MOTION":15.71130086,"ECCENTRICITY":0.0003963,"INCLINATION":42.9984,"RA_OF_ASC_NODE":257.3399,"ARG_OF_PERICENTER":264.8848,"MEAN_ANOMALY":95.1568,"EPHEMERIS_TYPE":0,"CLASSIFICATION_TYPE":"U","NORAD_CAT_ID":62591,"ELEMENT_SET_NO":999,"REV_AT_EPOCH":6387,"BSTAR":0.0023911,"MEAN_MOTION_DOT":0.00322519,"MEAN_MOTION_DDOT":0},{"OBJECT_NAME":"STARLINK-11415 [DTC]","OBJECT_ID":"2025-008F","EPOCH":"2026-02-16T14:26:34.066752","MEAN_MOTION":15.70863538,"ECCENTRICITY":0.0001064,"INCLINATION":42.9985,"RA_OF_ASC_NODE":253.6341,"ARG_OF_PERICENTER":229.9496,"MEAN_ANOMALY":130.1278,"EPHEMERIS_TYPE":0,"CLASSIFICATION_TYPE":"U","NORAD_CAT_ID":62592,"ELEMENT_SET_NO":999,"REV_AT_EPOCH":6390,"BSTAR":0.00069693,"MEAN_MOTION_DOT":0.00090039,"MEAN_MOTION_DDOT":0}]
