STARLINK-11523 [DTC]    
1 62565U 25006M   26046.96895205  .00202781  00000+0  15442-2 0  9996
2 62565  42.9998 271.0533 0001957 280.4506  79.6141 15.70861421 63186
STARLINK-11525 [DTC]    
1 62566U 25006N   26047.62073553 -.00017015  00000+0 -12961-3 0  9995
2 62566  42.9981 267.3507 0002380 282.3993  77.6608 15.70793077 63288
STARLINK-32752          
1 62567U 25006P   26047.38665264  .00029756  00000+0  10866-2 0  9999
2 62567  43.0039  52.9720 0001467 279.8820  80.1866 15.27577904 61605
STARLINK-32760          
1 62568U 25006Q   26047.45717437  .00023652  00000+0  86540-3 0  9990
2 62568  43.0039  52.6263 0001384 270.9056  89.1637 15.27612208 61619
STARLINK-32715          
1 62569U 25006R   26047.40079163  .00022897  00000+0  83883-3 0  9990
2 62569  43.0079  53.0829 0003214 294.3723  65.6793 15.27584516 61603
STARLINK-32764          
1 62570U 25006S   26047.40849555  .00023614  00000+0  86438-3 0  9999
2 62570  43.0011  53.1300 0001213 240.9771 119.0959 15.27599175 61608
STARLINK-32773          
1 62571U 25006T   26047.43405861  .00020274  00000+0  74423-3 0  9991
2 62571  43.0044  52.4656 0002952 268.0155  92.0359 15.27577832 61610
STARLINK-32750          
1 62572U 25006U   26047.02374245  .00029782  00000+0  10862-2 0  9997
2 62572  42.9996  54.5332 0001048 229.7418 130.3342 15.27614814 61553
STARLINK-32771          
1 62573U 25006V   26047.36095758  .00027937  00000+0  10209-2 0  9999
2 62573  42.9987  52.7698 0001346 278.7444  81.3255 15.27578357 61608
STARLINK-32766          
1 62574U 25006W   26047.37894687  .00031404  00000+0  11456-2 0  9998
2 62574  43.0012  52.9056 0001585 285.2848  74.7828 15.27587194 61607
STARLINK-11547 [DTC]    
1 62587U 25008A   26047.71833434  .00389132  00000+0  28238-2 0  9995
2 62587  42.9982 252.7846 0004043 251.2529 108.7900 15.71441935 62817
STARLINK-11185 [DTC]    
1 62588U 25008B   26046.98705274  .00311850  00000+0  23338-2 0  9992
2 62588  42.9994 256.7440 0002765 296.6617  63.3967 15.70940778 62700
STARLINK-11513 [DTC]    
1 62589U 25008C   26047.83488054  .00118230  00000+0  91008-3 0  9999
2 62589  43.0031 251.9398 0001755 276.8372  83.2296 15.70885793 62835
STARLINK-11397 [DTC]    
1 62590U 25008D   26047.60696534  .00423258  00000+0  31159-2 0  9999
2 62590  42.9996 252.7824 0002429 269.6327  90.4263 15.71000915 63917
STARLINK-11420 [DTC]    
1 62591U 25008E   26046.95001731  .00322519  00000+0  23911-2 0  9991
2 62591  42.9984 257.3399 0003963 264.8848  95.1568 15.71130086 63870
STARLINK-11415 [DTC]    
1 62592U 25008F   26047.60178318  .00090039  00000+0  69693-3 0  9998
2 62592  42.9985 253.6341 0001064 229.9496 130.1278 15.70863538 63905
